ENTRYSAT                
1 44429U 98067QP  19260.57075118  .00007174  00000-0  12178-3 0  9996
2 44429  51.6406 262.2757 0003914  35.8322 324.2930 15.52638436 11893
VCC C                   
1 44430U 98067QQ  19261.47340575  .00009881  00000-0  16457-3 0  9991
2 44430  51.6408 257.8045 0004194  47.0443 313.0898 15.52685733 10853
VCC B                   
1 44431U 98067QR  19260.57534046  .00006228  00000-0  10730-3 0  9990
2 44431  51.6408 262.3064 0004262  41.9028 318.2288 15.52486550 11839
